[{"OBJECT_NAME":"STARLINK-31717","OBJECT_ID":"2024-062M","EPOCH":"2026-03-09T22:01:36.696576","MEAN_MOTION":15.3018144,"ECCENTRICITY":0.00012463,"INCLINATION":53.1585,"RA_OF_ASC_NODE":254.7919,"ARG_OF_PERICENTER":97.0222,"MEAN_ANOMALY":263.0921,"EPHEMERIS_TYPE":0,"CLASSIFICATION_TYPE":"U","NORAD_CAT_ID":59385,"ELEMENT_SET_NO":999,"REV_AT_EPOCH":10969,"BSTAR":-3.1110226e-5,"MEAN_MOTION_DOT":-1.28e-5,"MEAN_MOTION_DDOT":0},{"OBJECT_NAME":"SL-3 R\/B","OBJECT_ID":"1981-065B","EPOCH":"2026-03-09T21:58:16.284000","MEAN_MOTION":15.33300883,"ECCENTRICITY":0.00117648,"INCLINATION":97.6337,"RA_OF_ASC_NODE":111.1786,"ARG_OF_PERICENTER":10.529,"MEAN_ANOMALY":349.6196,"EPHEMERIS_TYPE":0,"CLASSIFICATION_TYPE":"U","NORAD_CAT_ID":12586,"ELEMENT_SET_NO":999,"REV_AT_EPOCH":43499,"BSTAR":0.00030084921,"MEAN_MOTION_DOT":9.62e-5,"MEAN_MOTION_DDOT":0}]
